{
  "type": "FeatureCollection",
  "name": "WellLocations",
  "features": [
    {
      "type": "Feature",
      "geometry": {
        "type": "Point",
        "coordinates": [
          38.0462036215095,
          -97.8939812827941
        ]
      },
      "properties": {
        "id": "CMW-14D"
      }
    },
    {
      "type": "Feature",
      "geometry": {
        "type": "Point",
        "coordinates": [
          38.0462036215095,
          -97.8939812827941
        ]
      },
      "properties": {
        "id": "CMW-14S"
      }
    },
    {
      "type": "Feature",
      "geometry": {
        "type": "Point",
        "coordinates": [
          38.0489327043056,
          -97.8888899355586
        ]
      },
      "properties": {
        "id": "CMW-15D2"
      }
    },
    {
      "type": "Feature",
      "geometry": {
        "type": "Point",
        "coordinates": [
          38.0489327043056,
          -97.8888899355586
        ]
      },
      "properties": {
        "id": "CMW-15S"
      }
    },
    {
      "type": "Feature",
      "geometry": {
        "type": "Point",
        "coordinates": [
          38.0469565275012,
          -97.8852309790493
        ]
      },
      "properties": {
        "id": "CMW-22D"
      }
    },
    {
      "type": "Feature",
      "geometry": {
        "type": "Point",
        "coordinates": [
          38.0469565275012,
          -97.8852309790493
        ]
      },
      "properties": {
        "id": "CMW-22S"
      }
    },
    {
      "type": "Feature",
      "geometry": {
        "type": "Point",
        "coordinates": [
          38.045255321873,
          -97.8802672718176
        ]
      },
      "properties": {
        "id": "CMW-23D"
      }
    },
    {
      "type": "Feature",
      "geometry": {
        "type": "Point",
        "coordinates": [
          38.045255321873,
          -97.8802672718176
        ]
      },
      "properties": {
        "id": "CMW-23S"
      }
    },
    {
      "type": "Feature",
      "geometry": {
        "type": "Point",
        "coordinates": [
          38.0446466361768,
          -97.8851881614405
        ]
      },
      "properties": {
        "id": "CMW-34D"
      }
    },
    {
      "type": "Feature",
      "geometry": {
        "type": "Point",
        "coordinates": [
          38.0446466361768,
          -97.8851881614405
        ]
      },
      "properties": {
        "id": "CMW-34S"
      }
    },
    {
      "type": "Feature",
      "geometry": {
        "type": "Point",
        "coordinates": [
          38.0496292161521,
          -97.8856882721718
        ]
      },
      "properties": {
        "id": "MW-11D"
      }
    },
    {
      "type": "Feature",
      "geometry": {
        "type": "Point",
        "coordinates": [
          38.0485806138855,
          -97.8918187489219
        ]
      },
      "properties": {
        "id": "MW-16D"
      }
    },
    {
      "type": "Feature",
      "geometry": {
        "type": "Point",
        "coordinates": [
          38.0392464376202,
          -97.8816853357753
        ]
      },
      "properties": {
        "id": "MW-19D"
      }
    },
    {
      "type": "Feature",
      "geometry": {
        "type": "Point",
        "coordinates": [
          38.039331632947,
          -97.8816830359162
        ]
      },
      "properties": {
        "id": "MW-19S"
      }
    },
    {
      "type": "Feature",
      "geometry": {
        "type": "Point",
        "coordinates": [
          38.0417672639509,
          -97.8763313357295
        ]
      },
      "properties": {
        "id": "MW-20D"
      }
    },
    {
      "type": "Feature",
      "geometry": {
        "type": "Point",
        "coordinates": [
          38.0417672639509,
          -97.8763313357295
        ]
      },
      "properties": {
        "id": "MW-20S"
      }
    },
    {
      "type": "Feature",
      "geometry": {
        "type": "Point",
        "coordinates": [
          38.0360126941592,
          -97.8760673072567
        ]
      },
      "properties": {
        "id": "MW-21D"
      }
    },
    {
      "type": "Feature",
      "geometry": {
        "type": "Point",
        "coordinates": [
          38.0360983717459,
          -97.8760691703577
        ]
      },
      "properties": {
        "id": "MW-21S"
      }
    },
    {
      "type": "Feature",
      "geometry": {
        "type": "Point",
        "coordinates": [
          38.0340047545386,
          -97.8715231521003
        ]
      },
      "properties": {
        "id": "MW-23D"
      }
    },
    {
      "type": "Feature",
      "geometry": {
        "type": "Point",
        "coordinates": [
          38.0340047545386,
          -97.8715231521003
        ]
      },
      "properties": {
        "id": "MW-23S"
      }
    },
    {
      "type": "Feature",
      "geometry": {
        "type": "Point",
        "coordinates": [
          38.0390059908466,
          -97.8670812679845
        ]
      },
      "properties": {
        "id": "MW-24D"
      }
    },
    {
      "type": "Feature",
      "geometry": {
        "type": "Point",
        "coordinates": [
          38.0390059908466,
          -97.8670812679845
        ]
      },
      "properties": {
        "id": "MW-24S"
      }
    },
    {
      "type": "Feature",
      "geometry": {
        "type": "Point",
        "coordinates": [
          38.0489591944356,
          -97.894953235391
        ]
      },
      "properties": {
        "id": "MW-26D"
      }
    },
    {
      "type": "Feature",
      "geometry": {
        "type": "Point",
        "coordinates": [
          38.0500983881984,
          -97.8924840470838
        ]
      },
      "properties": {
        "id": "MW-27D"
      }
    },
    {
      "type": "Feature",
      "geometry": {
        "type": "Point",
        "coordinates": [
          38.0480697503109,
          -97.8929372997872
        ]
      },
      "properties": {
        "id": "MW-28D"
      }
    },
    {
      "type": "Feature",
      "geometry": {
        "type": "Point",
        "coordinates": [
          38.0507800391515,
          -97.8963330118782
        ]
      },
      "properties": {
        "id": "MW-29S"
      }
    },
    {
      "type": "Feature",
      "geometry": {
        "type": "Point",
        "coordinates": [
          38.0429211185625,
          -97.8865797724743
        ]
      },
      "properties": {
        "id": "MW-2D"
      }
    },
    {
      "type": "Feature",
      "geometry": {
        "type": "Point",
        "coordinates": [
          38.0430589709376,
          -97.886547332164
        ]
      },
      "properties": {
        "id": "MW-2S"
      }
    },
    {
      "type": "Feature",
      "geometry": {
        "type": "Point",
        "coordinates": [
          38.0290182447074,
          -97.8575183091912
        ]
      },
      "properties": {
        "id": "MW-30D"
      }
    },
    {
      "type": "Feature",
      "geometry": {
        "type": "Point",
        "coordinates": [
          38.0290100271535,
          -97.8575171656112
        ]
      },
      "properties": {
        "id": "MW-30S"
      }
    },
    {
      "type": "Feature",
      "geometry": {
        "type": "Point",
        "coordinates": [
          38.0340962319931,
          -97.8664522335294
        ]
      },
      "properties": {
        "id": "MW-37D3"
      }
    },
    {
      "type": "Feature",
      "geometry": {
        "type": "Point",
        "coordinates": [
          38.0340962319931,
          -97.8664522335294
        ]
      },
      "properties": {
        "id": "MW-37S"
      }
    },
    {
      "type": "Feature",
      "geometry": {
        "type": "Point",
        "coordinates": [
          38.0511251005324,
          -97.8969272537701
        ]
      },
      "properties": {
        "id": "MW-4S"
      }
    },
    {
      "type": "Feature",
      "geometry": {
        "type": "Point",
        "coordinates": [
          38.0365484067006,
          -97.8858140030487
        ]
      },
      "properties": {
        "id": "MW-5D"
      }
    },
    {
      "type": "Feature",
      "geometry": {
        "type": "Point",
        "coordinates": [
          38.0365457961706,
          -97.8859949020146
        ]
      },
      "properties": {
        "id": "MW-5S"
      }
    },
    {
      "type": "Feature",
      "geometry": {
        "type": "Point",
        "coordinates": [
          38.0439780529552,
          -97.8824228949582
        ]
      },
      "properties": {
        "id": "MW-6D"
      }
    },
    {
      "type": "Feature",
      "geometry": {
        "type": "Point",
        "coordinates": [
          38.0438412890213,
          -97.8824206814978
        ]
      },
      "properties": {
        "id": "MW-6S"
      }
    },
    {
      "type": "Feature",
      "geometry": {
        "type": "Point",
        "coordinates": [
          38.0435751019047,
          -97.892033393207
        ]
      },
      "properties": {
        "id": "MW-7D"
      }
    },
    {
      "type": "Feature",
      "geometry": {
        "type": "Point",
        "coordinates": [
          38.0436070240783,
          -97.8921001775057
        ]
      },
      "properties": {
        "id": "MW-7S"
      }
    },
    {
      "type": "Feature",
      "geometry": {
        "type": "Point",
        "coordinates": [
          38.0495267783959,
          -97.8908233975359
        ]
      },
      "properties": {
        "id": "RW-3"
      }
    },
    {
      "type": "Feature",
      "geometry": {
        "type": "Point",
        "coordinates": [
          38.0481574947683,
          -97.8903629837831
        ]
      },
      "properties": {
        "id": "RW-4"
      }
    },
    {
      "type": "Feature",
      "geometry": {
        "type": "Point",
        "coordinates": [
          38.0468935507741,
          -97.8908797261151
        ]
      },
      "properties": {
        "id": "RW-5"
      }
    },
    {
      "type": "Feature",
      "geometry": {
        "type": "Point",
        "coordinates": [
          38.0492678948873,
          -97.8934799825993
        ]
      },
      "properties": {
        "id": "SWP-10B"
      }
    },
    {
      "type": "Feature",
      "geometry": {
        "type": "Point",
        "coordinates": [
          38.0493918432068,
          -97.8923686146047
        ]
      },
      "properties": {
        "id": "SWP-11A"
      }
    },
    {
      "type": "Feature",
      "geometry": {
        "type": "Point",
        "coordinates": [
          38.0493918432068,
          -97.8923686146047
        ]
      },
      "properties": {
        "id": "SWP-11B"
      }
    },
    {
      "type": "Feature",
      "geometry": {
        "type": "Point",
        "coordinates": [
          38.047900671881,
          -97.8911640816668
        ]
      },
      "properties": {
        "id": "SWP-14A"
      }
    },
    {
      "type": "Feature",
      "geometry": {
        "type": "Point",
        "coordinates": [
          38.047900671881,
          -97.8911640816668
        ]
      },
      "properties": {
        "id": "SWP-14B"
      }
    },
    {
      "type": "Feature",
      "geometry": {
        "type": "Point",
        "coordinates": [
          38.0456452013065,
          -97.8909130911348
        ]
      },
      "properties": {
        "id": "SWP-15A"
      }
    },
    {
      "type": "Feature",
      "geometry": {
        "type": "Point",
        "coordinates": [
          38.0456452013065,
          -97.8909130911348
        ]
      },
      "properties": {
        "id": "SWP-15B"
      }
    },
    {
      "type": "Feature",
      "geometry": {
        "type": "Point",
        "coordinates": [
          38.043397079712,
          -97.8895273304926
        ]
      },
      "properties": {
        "id": "SWP-17B"
      }
    },
    {
      "type": "Feature",
      "geometry": {
        "type": "Point",
        "coordinates": [
          38.0541171297554,
          -97.898448088849
        ]
      },
      "properties": {
        "id": "SWP-3A"
      }
    },
    {
      "type": "Feature",
      "geometry": {
        "type": "Point",
        "coordinates": [
          38.0541171297554,
          -97.898448088849
        ]
      },
      "properties": {
        "id": "SWP-3B"
      }
    },
    {
      "type": "Feature",
      "geometry": {
        "type": "Point",
        "coordinates": [
          38.0525027859056,
          -97.8942735490727
        ]
      },
      "properties": {
        "id": "SWP-4A"
      }
    },
    {
      "type": "Feature",
      "geometry": {
        "type": "Point",
        "coordinates": [
          38.0525027859056,
          -97.8942735490727
        ]
      },
      "properties": {
        "id": "SWP-4B"
      }
    },
    {
      "type": "Feature",
      "geometry": {
        "type": "Point",
        "coordinates": [
          38.0504961278969,
          -97.8908202454465
        ]
      },
      "properties": {
        "id": "SWP-6A"
      }
    },
    {
      "type": "Feature",
      "geometry": {
        "type": "Point",
        "coordinates": [
          38.0504961278969,
          -97.8908202454465
        ]
      },
      "properties": {
        "id": "SWP-6B"
      }
    },
    {
      "type": "Feature",
      "geometry": {
        "type": "Point",
        "coordinates": [
          38.0501143747637,
          -97.8946722134302
        ]
      },
      "properties": {
        "id": "SWP-7A"
      }
    },
    {
      "type": "Feature",
      "geometry": {
        "type": "Point",
        "coordinates": [
          38.0501143747637,
          -97.8946722134302
        ]
      },
      "properties": {
        "id": "SWP-7B"
      }
    },
    {
      "type": "Feature",
      "geometry": {
        "type": "Point",
        "coordinates": [
          38.0494544597584,
          -97.8992167841936
        ]
      },
      "properties": {
        "id": "SWP-8A"
      }
    },
    {
      "type": "Feature",
      "geometry": {
        "type": "Point",
        "coordinates": [
          38.0494544597584,
          -97.8992167841936
        ]
      },
      "properties": {
        "id": "SWP-8B"
      }
    },
    {
      "type": "Feature",
      "geometry": {
        "type": "Point",
        "coordinates": [
          38.0490606508794,
          -97.8969798462071
        ]
      },
      "properties": {
        "id": "SWP-9A"
      }
    },
    {
      "type": "Feature",
      "geometry": {
        "type": "Point",
        "coordinates": [
          38.0490606508794,
          -97.8969798462071
        ]
      },
      "properties": {
        "id": "SWP-9B"
      }
    }
  ],
  "crs": {
    "type": "name",
    "properties": {
      "name": "EPSG:4269"
    }
  }
}